start=new Date('2022-05-23T00:00:00.000Z').valueOf();
sats=[{"INCLINATION":"53.2161","EPOCH":"2022-05-22T22:00:01.999584","ARG_OF_PERICENTER":"43.7763","MEAN_ELEMENT_THEORY":"SGP4","MEAN_MOTION_DDOT":"0.0000000000000","PERIOD":"95.439","ECCENTRICITY":"0.00021600","OBJECT_TYPE":"PAYLOAD","LAUNCH_DATE":"2021-12-18","EPHEMERIS_TYPE":"0","RA_OF_ASC_NODE":"344.5820","TLE_LINE2":"2 50188  53.2161 344.5820 0002160  43.7763 318.9448 15.08815285  1301","COUNTRY_CODE":"US","REV_AT_EPOCH":"130","FILE":"3459268","MEAN_MOTION_DOT":"0.00036490","RCS_SIZE":"LARGE","PERIAPSIS":"538.327","REF_FRAME":"TEME","CLASSIFICATION_TYPE":"U","OBJECT_NAME":"STARLINK-3275","MEAN_ANOMALY":"318.9448","DECAY_DATE":null,"BSTAR":"0.00230050000000","APOAPSIS":"541.315","ELEMENT_SET_NO":"999","SEMIMAJOR_AXIS":"6917.956","TIME_SYSTEM":"UTC","NORAD_CAT_ID":"50188","MEAN_MOTION":"15.08815285","TLE_LINE1":"1 50188U 21125AJ  22142.91668981  .00036490  00000-0  23005-2 0  9996","SITE":"AFWTR","CENTER_NAME":"EARTH","GP_ID":"204283233","OBJECT_ID":"2021-125AJ"},{"EPHEMERIS_TYPE":"0","RA_OF_ASC_NODE":"354.5859","TLE_LINE2":"2 50189  53.2172 354.5859 0001810  58.1355 289.5684 15.08815355  1308","COUNTRY_CODE":"US","RCS_SIZE":"LARGE","REV_AT_EPOCH":"130","FILE":"3459268","MEAN_MOTION_DOT":"0.00018826","PERIAPSIS":"538.569","REF_FRAME":"TEME","CLASSIFICATION_TYPE":"U","INCLINATION":"53.2172","EPOCH":"2022-05-22T22:00:01.999584","ARG_OF_PERICENTER":"58.1355","MEAN_ELEMENT_THEORY":"SGP4","OBJECT_TYPE":"PAYLOAD","PERIOD":"95.439","MEAN_MOTION_DDOT":"0.0000000000000","ECCENTRICITY":"0.00018100","LAUNCH_DATE":"2021-12-18","TLE_LINE1":"1 50189U 21125AK  22142.91668981  .00018826  00000-0  11986-2 0  9995","SITE":"AFWTR","CENTER_NAME":"EARTH","GP_ID":"204282488","OBJECT_ID":"2021-125AK","DECAY_DATE":null,"BSTAR":"0.00119860000000","APOAPSIS":"541.073","MEAN_ANOMALY":"289.5684","OBJECT_NAME":"STARLINK-3276","SEMIMAJOR_AXIS":"6917.956","ELEMENT_SET_NO":"999","TIME_SYSTEM":"UTC","NORAD_CAT_ID":"50189","MEAN_MOTION":"15.08815355"},{"CLASSIFICATION_TYPE":"U","REF_FRAME":"TEME","PERIAPSIS":"538.504","COUNTRY_CODE":"US","TLE_LINE2":"2 50190  53.2164 344.5831 0001909  48.3638  34.3641 15.08814164  1300","FILE":"3459268","MEAN_MOTION_DOT":"0.00037157","REV_AT_EPOCH":"130","RCS_SIZE":"LARGE","EPHEMERIS_TYPE":"0","RA_OF_ASC_NODE":"344.5831","MEAN_MOTION_DDOT":"0.0000000000000","PERIOD":"95.439","ECCENTRICITY":"0.00019090","OBJECT_TYPE":"PAYLOAD","LAUNCH_DATE":"2021-12-18","MEAN_ELEMENT_THEORY":"SGP4","ARG_OF_PERICENTER":"48.3638","EPOCH":"2022-05-22T22:00:01.999584","INCLINATION":"53.2164","OBJECT_ID":"2021-125AL","CENTER_NAME":"EARTH","GP_ID":"204282738","TLE_LINE1":"1 50190U 21125AL  22142.91668981  .00037157  00000-0  23421-2 0  9992","SITE":"AFWTR","MEAN_MOTION":"15.08814164","TIME_SYSTEM":"UTC","NORAD_CAT_ID":"50190","ELEMENT_SET_NO":"999","SEMIMAJOR_AXIS":"6917.959","MEAN_ANOMALY":"34.3641","OBJECT_NAME":"STARLINK-3268","DECAY_DATE":null,"APOAPSIS":"541.145","BSTAR":"0.00234210000000"},{"PERIAPSIS":"538.181","REF_FRAME":"TEME","CLASSIFICATION_TYPE":"U","EPHEMERIS_TYPE":"0","RA_OF_ASC_NODE":"4.6033","TLE_LINE2":"2 50191  53.2160   4.6033 0002339  34.3962 358.3281 15.08822468  1303","COUNTRY_CODE":"US","RCS_SIZE":"LARGE","REV_AT_EPOCH":"130","FILE":"3459268","MEAN_MOTION_DOT":"0.00012179","MEAN_ELEMENT_THEORY":"SGP4","OBJECT_TYPE":"PAYLOAD","ECCENTRICITY":"0.00023390","PERIOD":"95.439","MEAN_MOTION_DDOT":"0.0000000000000","LAUNCH_DATE":"2021-12-18","INCLINATION":"53.2160","EPOCH":"2022-05-22T22:00:01.999584","ARG_OF_PERICENTER":"34.3962","CENTER_NAME":"EARTH","GP_ID":"204283487","OBJECT_ID":"2021-125AM","TLE_LINE1":"1 50191U 21125AM  22142.91668981  .00012179  00000-0  78232-3 0  9991","SITE":"AFWTR","TIME_SYSTEM":"UTC","NORAD_CAT_ID":"50191","MEAN_MOTION":"15.08822468","APOAPSIS":"541.417","DECAY_DATE":null,"BSTAR":"0.00078232000000","MEAN_ANOMALY":"358.3281","OBJECT_NAME":"STARLINK-3273","SEMIMAJOR_AXIS":"6917.934","ELEMENT_SET_NO":"999"},{"PERIAPSIS":"538.557","REF_FRAME":"TEME","CLASSIFICATION_TYPE":"U","RA_OF_ASC_NODE":"344.5868","EPHEMERIS_TYPE":"0","RCS_SIZE":"LARGE","MEAN_MOTION_DOT":"0.00005282","FILE":"3459268","REV_AT_EPOCH":"130","COUNTRY_CODE":"US","TLE_LINE2":"2 50192  53.2172 344.5868 0001757  44.9193  57.8454 15.08831215  1308","MEAN_ELEMENT_THEORY":"SGP4","LAUNCH_DATE":"2021-12-18","OBJECT_TYPE":"PAYLOAD","PERIOD":"95.438","MEAN_MOTION_DDOT":"0.0000000000000","ECCENTRICITY":"0.00017570","EPOCH":"2022-05-22T22:00:01.999584","INCLINATION":"53.2172","ARG_OF_PERICENTER":"44.9193","GP_ID":"204283733","CENTER_NAME":"EARTH","OBJECT_ID":"2021-125AN","SITE":"AFWTR","TLE_LINE1":"1 50192U 21125AN  22142.91668981  .00005282  00000-0  34979-3 0  9999","NORAD_CAT_ID":"50192","TIME_SYSTEM":"UTC","MEAN_MOTION":"15.08831215","APOAPSIS":"540.988","DECAY_DATE":null,"BSTAR":"0.00034979000000","OBJECT_NAME":"STARLINK-3259","MEAN_ANOMALY":"57.8454","SEMIMAJOR_AXIS":"6917.907","ELEMENT_SET_NO":"999"},{"CLASSIFICATION_TYPE":"U","PERIAPSIS":"538.620","REF_FRAME":"TEME","MEAN_MOTION_DOT":"0.00025555","FILE":"3459268","REV_AT_EPOCH":"130","RCS_SIZE":"LARGE","TLE_LINE2":"2 50193  53.2164 344.5829 0001786  46.8717 355.8670 15.08804116  1303","COUNTRY_CODE":"US","RA_OF_ASC_NODE":"344.5829","EPHEMERIS_TYPE":"0","LAUNCH_DATE":"2021-12-18","PERIOD":"95.440","MEAN_MOTION_DDOT":"0.0000000000000","ECCENTRICITY":"0.00017860","OBJECT_TYPE":"PAYLOAD","MEAN_ELEMENT_THEORY":"SGP4","ARG_OF_PERICENTER":"46.8717","EPOCH":"2022-05-22T22:00:01.999584","INCLINATION":"53.2164","OBJECT_ID":"2021-125AP","GP_ID":"204281989","CENTER_NAME":"EARTH","SITE":"AFWTR","TLE_LINE1":"1 50193U 21125AP  22142.91668981  .00025555  00000-0  16195-2 0  9994","MEAN_MOTION":"15.08804116","NORAD_CAT_ID":"50193","TIME_SYSTEM":"UTC","ELEMENT_SET_NO":"999","SEMIMAJOR_AXIS":"6917.990","OBJECT_NAME":"STARLINK-3261","MEAN_ANOMALY":"355.8670","BSTAR":"0.00161950000000","DECAY_DATE":null,"APOAPSIS":"541.091"},{"ELEMENT_SET_NO":"999","SEMIMAJOR_AXIS":"6917.950","OBJECT_NAME":"STARLINK-3269","MEAN_ANOMALY":"73.9844","DECAY_DATE":null,"APOAPSIS":"541.024","BSTAR":"0.00112140000000","MEAN_MOTION":"15.08817237","NORAD_CAT_ID":"50194","TIME_SYSTEM":"UTC","SITE":"AFWTR","TLE_LINE1":"1 50194U 21125AQ  22142.91668981  .00017593  00000-0  11214-2 0  9995","OBJECT_ID":"2021-125AQ","GP_ID":"204282239","CENTER_NAME":"EARTH","ARG_OF_PERICENTER":"48.7345","EPOCH":"2022-05-22T22:00:01.999584","INCLINATION":"53.2157","LAUNCH_DATE":"2021-12-18","ECCENTRICITY":"0.00017470","PERIOD":"95.439","MEAN_MOTION_DDOT":"0.0000000000000","OBJECT_TYPE":"PAYLOAD","MEAN_ELEMENT_THEORY":"SGP4","FILE":"3459268","MEAN_MOTION_DOT":"0.00017593","REV_AT_EPOCH":"130","RCS_SIZE":"LARGE","TLE_LINE2":"2 50194  53.2157 344.5820 0001747  48.7345  73.9844 15.08817237  1301","COUNTRY_CODE":"US","RA_OF_ASC_NODE":"344.5820","EPHEMERIS_TYPE":"0","CLASSIFICATION_TYPE":"U","REF_FRAME":"TEME","PERIAPSIS":"538.606"},{"BSTAR":"0.00230350000000","DECAY_DATE":null,"APOAPSIS":"541.176","MEAN_ANOMALY":"9.6931","OBJECT_NAME":"STARLINK-3266","SEMIMAJOR_AXIS":"6917.972","ELEMENT_SET_NO":"999","TIME_SYSTEM":"UTC","NORAD_CAT_ID":"50195","MEAN_MOTION":"15.08809947","TLE_LINE1":"1 50195U 21125AR  22142.91668981  .00036533  00000-0  23035-2 0  9995","SITE":"AFWTR","CENTER_NAME":"EARTH","GP_ID":"204282988","OBJECT_ID":"2021-125AR","INCLINATION":"53.2165","EPOCH":"2022-05-22T22:00:01.999584","ARG_OF_PERICENTER":"52.9997","MEAN_ELEMENT_THEORY":"SGP4","OBJECT_TYPE":"PAYLOAD","PERIOD":"95.439","MEAN_MOTION_DDOT":"0.0000000000000","ECCENTRICITY":"0.00019350","LAUNCH_DATE":"2021-12-18","EPHEMERIS_TYPE":"0","RA_OF_ASC_NODE":"344.5833","COUNTRY_CODE":"US","TLE_LINE2":"2 50195  53.2165 344.5833 0001935  52.9997   9.6931 15.08809947  1306","RCS_SIZE":"LARGE","FILE":"3459268","MEAN_MOTION_DOT":"0.00036533","REV_AT_EPOCH":"130","REF_FRAME":"TEME","PERIAPSIS":"538.499","CLASSIFICATION_TYPE":"U"},{"REF_FRAME":"TEME","PERIAPSIS":"538.216","CLASSIFICATION_TYPE":"U","EPHEMERIS_TYPE":"0","RA_OF_ASC_NODE":"344.5796","TLE_LINE2":"2 50196  53.2180 344.5796 0002354  38.4181 124.2883 15.08807561  1302","COUNTRY_CODE":"US","REV_AT_EPOCH":"130","FILE":"3459268","MEAN_MOTION_DOT":"0.00039036","RCS_SIZE":"LARGE","MEAN_ELEMENT_THEORY":"SGP4","MEAN_MOTION_DDOT":"0.0000000000000","PERIOD":"95.440","ECCENTRICITY":"0.00023540","OBJECT_TYPE":"PAYLOAD","LAUNCH_DATE":"2021-12-18","EPOCH":"2022-05-22T22:00:01.999584","INCLINATION":"53.2180","ARG_OF_PERICENTER":"38.4181","CENTER_NAME":"EARTH","GP_ID":"204283234","OBJECT_ID":"2021-125AS","TLE_LINE1":"1 50196U 21125AS  22142.91668981  .00039036  00000-0  24594-2 0  9998","SITE":"AFWTR","TIME_SYSTEM":"UTC","NORAD_CAT_ID":"50196","MEAN_MOTION":"15.08807561","MEAN_ANOMALY":"124.2883","OBJECT_NAME":"STARLINK-3263","DECAY_DATE":null,"APOAPSIS":"541.473","BSTAR":"0.00245940000000","ELEMENT_SET_NO":"999","SEMIMAJOR_AXIS":"6917.980"},{"ARG_OF_PERICENTER":"49.3757","EPOCH":"2022-05-22T22:00:01.999584","INCLINATION":"53.2180","ECCENTRICITY":"0.00018590","PERIOD":"95.438","MEAN_MOTION_DDOT":"0.0000000000000","OBJECT_TYPE":"PAYLOAD","LAUNCH_DATE":"2021-12-18","MEAN_ELEMENT_THEORY":"SGP4","TLE_LINE2":"2 50197  53.2180 344.5786 0001859  49.3757  93.3425 15.08825176  1301","COUNTRY_CODE":"US","MEAN_MOTION_DOT":"-0.00006755","FILE":"3459268","REV_AT_EPOCH":"130","RCS_SIZE":"LARGE","EPHEMERIS_TYPE":"0","RA_OF_ASC_NODE":"344.5786","CLASSIFICATION_TYPE":"U","PERIAPSIS":"538.505","REF_FRAME":"TEME","ELEMENT_SET_NO":"999","SEMIMAJOR_AXIS":"6917.926","MEAN_ANOMALY":"93.3425","OBJECT_NAME":"STARLINK-3267","DECAY_DATE":null,"APOAPSIS":"541.077","BSTAR":"-0.00040687000000","MEAN_MOTION":"15.08825176","TIME_SYSTEM":"UTC","NORAD_CAT_ID":"50197","TLE_LINE1":"1 50197U 21125AT  22142.91668981 -.00006755  00000-0 -40687-3 0  9995","SITE":"AFWTR","OBJECT_ID":"2021-125AT","CENTER_NAME":"EARTH","GP_ID":"204282489"}];
